<?xml version="1.0" encoding="UTF-8"?>
<ndm xmlns:xsi="http://www.w3.org/2001/XMLSchema-instance" xsi:noNamespaceSchemaLocation="https://sanaregistry.org/r/ndmxml_unqualified/ndmxml-2.0.0-master-2.0.xsd">
<omm id="CCSDS_OMM_VERS" version="2.0">
<header><CREATION_DATE/><ORIGINATOR/></header><body><segment><metadata><OBJECT_NAME>KUIPER-00116</OBJECT_NAME><OBJECT_ID>2025-171X</OBJECT_ID><CENTER_NAME>EARTH</CENTER_NAME><REF_FRAME>TEME</REF_FRAME><TIME_SYSTEM>UTC</TIME_SYSTEM><MEAN_ELEMENT_THEORY>SGP4</MEAN_ELEMENT_THEORY></metadata><data><meanElements><EPOCH>2025-12-21T19:59:34.083168</EPOCH><MEAN_MOTION>14.79973089</MEAN_MOTION><ECCENTRICITY>.0009667</ECCENTRICITY><INCLINATION>51.8985</INCLINATION><RA_OF_ASC_NODE>157.4117</RA_OF_ASC_NODE><ARG_OF_PERICENTER>189.3191</ARG_OF_PERICENTER><MEAN_ANOMALY>170.7594</MEAN_ANOMALY></meanElements><tleParameters><EPHEMERIS_TYPE>0</EPHEMERIS_TYPE><CLASSIFICATION_TYPE>U</CLASSIFICATION_TYPE><NORAD_CAT_ID>65153</NORAD_CAT_ID><ELEMENT_SET_NO>999</ELEMENT_SET_NO><REV_AT_EPOCH>2114</REV_AT_EPOCH><BSTAR>.38938E-3</BSTAR><MEAN_MOTION_DOT>.2751E-4</MEAN_MOTION_DOT><MEAN_MOTION_DDOT>0</MEAN_MOTION_DDOT></tleParameters></data></segment></body></omm>
<omm id="CCSDS_OMM_VERS" version="2.0">
<header><CREATION_DATE/><ORIGINATOR/></header><body><segment><metadata><OBJECT_NAME>KUIPER-00118</OBJECT_NAME><OBJECT_ID>2025-171Y</OBJECT_ID><CENTER_NAME>EARTH</CENTER_NAME><REF_FRAME>TEME</REF_FRAME><TIME_SYSTEM>UTC</TIME_SYSTEM><MEAN_ELEMENT_THEORY>SGP4</MEAN_ELEMENT_THEORY></metadata><data><meanElements><EPOCH>2025-12-21T16:41:15.995328</EPOCH><MEAN_MOTION>14.79915545</MEAN_MOTION><ECCENTRICITY>.0001469</ECCENTRICITY><INCLINATION>51.8982</INCLINATION><RA_OF_ASC_NODE>160.4752</RA_OF_ASC_NODE><ARG_OF_PERICENTER>166.0354</ARG_OF_PERICENTER><MEAN_ANOMALY>194.0649</MEAN_ANOMALY></meanElements><tleParameters><EPHEMERIS_TYPE>0</EPHEMERIS_TYPE><CLASSIFICATION_TYPE>U</CLASSIFICATION_TYPE><NORAD_CAT_ID>65154</NORAD_CAT_ID><ELEMENT_SET_NO>999</ELEMENT_SET_NO><REV_AT_EPOCH>2109</REV_AT_EPOCH><BSTAR>.34013E-3</BSTAR><MEAN_MOTION_DOT>.2371E-4</MEAN_MOTION_DOT><MEAN_MOTION_DDOT>0</MEAN_MOTION_DDOT></tleParameters></data></segment></body></omm>
<omm id="CCSDS_OMM_VERS" version="2.0">
<header><CREATION_DATE/><ORIGINATOR/></header><body><segment><metadata><OBJECT_NAME>KUIPER-00119</OBJECT_NAME><OBJECT_ID>2025-171Z</OBJECT_ID><CENTER_NAME>EARTH</CENTER_NAME><REF_FRAME>TEME</REF_FRAME><TIME_SYSTEM>UTC</TIME_SYSTEM><MEAN_ELEMENT_THEORY>SGP4</MEAN_ELEMENT_THEORY></metadata><data><meanElements><EPOCH>2025-12-21T15:23:22.693632</EPOCH><MEAN_MOTION>14.79922799</MEAN_MOTION><ECCENTRICITY>.0007951</ECCENTRICITY><INCLINATION>51.8982</INCLINATION><RA_OF_ASC_NODE>148.2982</RA_OF_ASC_NODE><ARG_OF_PERICENTER>218.0409</ARG_OF_PERICENTER><MEAN_ANOMALY>141.9993</MEAN_ANOMALY></meanElements><tleParameters><EPHEMERIS_TYPE>0</EPHEMERIS_TYPE><CLASSIFICATION_TYPE>U</CLASSIFICATION_TYPE><NORAD_CAT_ID>65155</NORAD_CAT_ID><ELEMENT_SET_NO>999</ELEMENT_SET_NO><REV_AT_EPOCH>2125</REV_AT_EPOCH><BSTAR>.44013E-3</BSTAR><MEAN_MOTION_DOT>.3135E-4</MEAN_MOTION_DOT><MEAN_MOTION_DDOT>0</MEAN_MOTION_DDOT></tleParameters></data></segment></body></omm>
<omm id="CCSDS_OMM_VERS" version="2.0">
<header><CREATION_DATE/><ORIGINATOR/></header><body><segment><metadata><OBJECT_NAME>KUIPER-00120</OBJECT_NAME><OBJECT_ID>2025-217A</OBJECT_ID><CENTER_NAME>EARTH</CENTER_NAME><REF_FRAME>TEME</REF_FRAME><TIME_SYSTEM>UTC</TIME_SYSTEM><MEAN_ELEMENT_THEORY>SGP4</MEAN_ELEMENT_THEORY></metadata><data><meanElements><EPOCH>2025-12-20T19:29:05.414208</EPOCH><MEAN_MOTION>14.81420566</MEAN_MOTION><ECCENTRICITY>.00108344</ECCENTRICITY><INCLINATION>51.8973</INCLINATION><RA_OF_ASC_NODE>40.6327</RA_OF_ASC_NODE><ARG_OF_PERICENTER>36.0676</ARG_OF_PERICENTER><MEAN_ANOMALY>324.1016</MEAN_ANOMALY></meanElements><tleParameters><EPHEMERIS_TYPE>0</EPHEMERIS_TYPE><CLASSIFICATION_TYPE>U</CLASSIFICATION_TYPE><NORAD_CAT_ID>65762</NORAD_CAT_ID><ELEMENT_SET_NO>999</ELEMENT_SET_NO><REV_AT_EPOCH>1307</REV_AT_EPOCH><BSTAR>-.13756123E-1</BSTAR><MEAN_MOTION_DOT>-.107307E-2</MEAN_MOTION_DOT><MEAN_MOTION_DDOT>0</MEAN_MOTION_DDOT></tleParameters></data></segment></body></omm>
<omm id="CCSDS_OMM_VERS" version="2.0">
<header><CREATION_DATE/><ORIGINATOR/></header><body><segment><metadata><OBJECT_NAME>KUIPER-00132</OBJECT_NAME><OBJECT_ID>2025-217B</OBJECT_ID><CENTER_NAME>EARTH</CENTER_NAME><REF_FRAME>TEME</REF_FRAME><TIME_SYSTEM>UTC</TIME_SYSTEM><MEAN_ELEMENT_THEORY>SGP4</MEAN_ELEMENT_THEORY></metadata><data><meanElements><EPOCH>2025-12-21T19:15:28.200672</EPOCH><MEAN_MOTION>15.37659390</MEAN_MOTION><ECCENTRICITY>.0007735</ECCENTRICITY><INCLINATION>51.8623</INCLINATION><RA_OF_ASC_NODE>20.9039</RA_OF_ASC_NODE><ARG_OF_PERICENTER>48.4378</ARG_OF_PERICENTER><MEAN_ANOMALY>311.7270</MEAN_ANOMALY></meanElements><tleParameters><EPHEMERIS_TYPE>0</EPHEMERIS_TYPE><CLASSIFICATION_TYPE>U</CLASSIFICATION_TYPE><NORAD_CAT_ID>65763</NORAD_CAT_ID><ELEMENT_SET_NO>999</ELEMENT_SET_NO><REV_AT_EPOCH>1343</REV_AT_EPOCH><BSTAR>.99969E-3</BSTAR><MEAN_MOTION_DOT>.37365E-3</MEAN_MOTION_DOT><MEAN_MOTION_DDOT>0</MEAN_MOTION_DDOT></tleParameters></data></segment></body></omm>
<omm id="CCSDS_OMM_VERS" version="2.0">
<header><CREATION_DATE/><ORIGINATOR/></header><body><segment><metadata><OBJECT_NAME>KUIPER-00133</OBJECT_NAME><OBJECT_ID>2025-217C</OBJECT_ID><CENTER_NAME>EARTH</CENTER_NAME><REF_FRAME>TEME</REF_FRAME><TIME_SYSTEM>UTC</TIME_SYSTEM><MEAN_ELEMENT_THEORY>SGP4</MEAN_ELEMENT_THEORY></metadata><data><meanElements><EPOCH>2025-12-21T12:09:34.743168</EPOCH><MEAN_MOTION>14.79919012</MEAN_MOTION><ECCENTRICITY>.00116927</ECCENTRICITY><INCLINATION>51.9056</INCLINATION><RA_OF_ASC_NODE>38.8219</RA_OF_ASC_NODE><ARG_OF_PERICENTER>61.0659</ARG_OF_PERICENTER><MEAN_ANOMALY>299.1474</MEAN_ANOMALY></meanElements><tleParameters><EPHEMERIS_TYPE>0</EPHEMERIS_TYPE><CLASSIFICATION_TYPE>U</CLASSIFICATION_TYPE><NORAD_CAT_ID>65764</NORAD_CAT_ID><ELEMENT_SET_NO>999</ELEMENT_SET_NO><REV_AT_EPOCH>1316</REV_AT_EPOCH><BSTAR>.3883095E-3</BSTAR><MEAN_MOTION_DOT>.2739E-4</MEAN_MOTION_DOT><MEAN_MOTION_DDOT>0</MEAN_MOTION_DDOT></tleParameters></data></segment></body></omm>
<omm id="CCSDS_OMM_VERS" version="2.0">
<header><CREATION_DATE/><ORIGINATOR/></header><body><segment><metadata><OBJECT_NAME>KUIPER-00139</OBJECT_NAME><OBJECT_ID>2025-217D</OBJECT_ID><CENTER_NAME>EARTH</CENTER_NAME><REF_FRAME>TEME</REF_FRAME><TIME_SYSTEM>UTC</TIME_SYSTEM><MEAN_ELEMENT_THEORY>SGP4</MEAN_ELEMENT_THEORY></metadata><data><meanElements><EPOCH>2025-12-21T12:44:03.696576</EPOCH><MEAN_MOTION>15.01757295</MEAN_MOTION><ECCENTRICITY>.0008638</ECCENTRICITY><INCLINATION>51.8861</INCLINATION><RA_OF_ASC_NODE>31.7008</RA_OF_ASC_NODE><ARG_OF_PERICENTER>50.9980</ARG_OF_PERICENTER><MEAN_ANOMALY>309.1759</MEAN_ANOMALY></meanElements><tleParameters><EPHEMERIS_TYPE>0</EPHEMERIS_TYPE><CLASSIFICATION_TYPE>U</CLASSIFICATION_TYPE><NORAD_CAT_ID>65765</NORAD_CAT_ID><ELEMENT_SET_NO>999</ELEMENT_SET_NO><REV_AT_EPOCH>1326</REV_AT_EPOCH><BSTAR>.56761E-3</BSTAR><MEAN_MOTION_DOT>.7215E-4</MEAN_MOTION_DOT><MEAN_MOTION_DDOT>0</MEAN_MOTION_DDOT></tleParameters></data></segment></body></omm>
<omm id="CCSDS_OMM_VERS" version="2.0">
<header><CREATION_DATE/><ORIGINATOR/></header><body><segment><metadata><OBJECT_NAME>KUIPER-00142</OBJECT_NAME><OBJECT_ID>2025-217E</OBJECT_ID><CENTER_NAME>EARTH</CENTER_NAME><REF_FRAME>TEME</REF_FRAME><TIME_SYSTEM>UTC</TIME_SYSTEM><MEAN_ELEMENT_THEORY>SGP4</MEAN_ELEMENT_THEORY></metadata><data><meanElements><EPOCH>2025-12-21T20:00:01.999008</EPOCH><MEAN_MOTION>15.10200390</MEAN_MOTION><ECCENTRICITY>.0002971</ECCENTRICITY><INCLINATION>51.8817</INCLINATION><RA_OF_ASC_NODE>22.3622</RA_OF_ASC_NODE><ARG_OF_PERICENTER>112.1111</ARG_OF_PERICENTER><MEAN_ANOMALY>48.2340</MEAN_ANOMALY></meanElements><tleParameters><EPHEMERIS_TYPE>0</EPHEMERIS_TYPE><CLASSIFICATION_TYPE>U</CLASSIFICATION_TYPE><NORAD_CAT_ID>65766</NORAD_CAT_ID><ELEMENT_SET_NO>999</ELEMENT_SET_NO><REV_AT_EPOCH>373</REV_AT_EPOCH><BSTAR>.16353E-3</BSTAR><MEAN_MOTION_DOT>.2411E-4</MEAN_MOTION_DOT><MEAN_MOTION_DDOT>0</MEAN_MOTION_DDOT></tleParameters></data></segment></body></omm>
<omm id="CCSDS_OMM_VERS" version="2.0">
<header><CREATION_DATE/><ORIGINATOR/></header><body><segment><metadata><OBJECT_NAME>KUIPER-00145</OBJECT_NAME><OBJECT_ID>2025-217F</OBJECT_ID><CENTER_NAME>EARTH</CENTER_NAME><REF_FRAME>TEME</REF_FRAME><TIME_SYSTEM>UTC</TIME_SYSTEM><MEAN_ELEMENT_THEORY>SGP4</MEAN_ELEMENT_THEORY></metadata><data><meanElements><EPOCH>2025-12-21T20:00:01.999008</EPOCH><MEAN_MOTION>15.03615288</MEAN_MOTION><ECCENTRICITY>.0006945</ECCENTRICITY><INCLINATION>51.8939</INCLINATION><RA_OF_ASC_NODE>24.0109</RA_OF_ASC_NODE><ARG_OF_PERICENTER>42.6995</ARG_OF_PERICENTER><MEAN_ANOMALY>286.6840</MEAN_ANOMALY></meanElements><tleParameters><EPHEMERIS_TYPE>0</EPHEMERIS_TYPE><CLASSIFICATION_TYPE>U</CLASSIFICATION_TYPE><NORAD_CAT_ID>65767</NORAD_CAT_ID><ELEMENT_SET_NO>999</ELEMENT_SET_NO><REV_AT_EPOCH>542</REV_AT_EPOCH><BSTAR>-.10423E+0</BSTAR><MEAN_MOTION_DOT>-.1329038E-1</MEAN_MOTION_DOT><MEAN_MOTION_DDOT>0</MEAN_MOTION_DDOT></tleParameters></data></segment></body></omm>

</ndm>
